IRIDIUM 39              
1 25042U 97069D   25352.12323445  .00000573  00000+0  14385-3 0  9993
2 25042  86.3920 132.3226 0019334  56.1365 304.1676 14.49513179475601
IRIDIUM 38              
1 25043U 97069E   25352.19552753  .00000408  00000+0  12775-3 0  9995
2 25043  86.3972 155.8134 0001878 150.0367 210.0939 14.38319054472403
IRIDIUM 42              
1 25077U 97077A   25352.21946873  .00000376  00000+0  12130-3 0  9993
2 25077  86.3979 162.1976 0001488 109.2183 250.9176 14.36536750467616
IRIDIUM 44              
1 25078U 97077B   25351.95470508  .00000324  00000+0  95609-4 0  9997
2 25078  86.3969 143.7547 0003527 116.4489 243.7073 14.40436131470156
IRIDIUM 45              
1 25104U 97082A   25352.16429877  .00029989  00000+0  84294-3 0  9995
2 25104  86.3538 318.0039 0097767   0.6713 359.4648 15.31603075480107
IRIDIUM 24              
1 25105U 97082B   25352.31357121  .00000417  00000+0  12032-3 0  9991
2 25105  86.3908   2.1869 0011233 178.2753 181.8488 14.42333088469753
IRIDIUM 51              
1 25262U 98018A   25351.96056222  .00087150  00000+0  89888-3 0  9995
2 25262  86.3721 323.5607 0046282 251.4277 108.1959 15.63131134475469
IRIDIUM 57              
1 25273U 98019B   25352.27679873  .00000299  00000+0  96130-4 0  9994
2 25273  86.3955  68.0677 0002145  98.3762 261.7678 14.36055532451201
